GOES 9                  
1 23581U 95025A   08316.21528590 -.00000142  00000-0  10000-3 0  8249
2 23581   4.7601  73.2838 0000799 287.8217  72.0679  0.98800940 49271
SARSAT 7 (NOAA 15)      
1 25338U 98030A   08317.40034044  .00000003  00000-0  19941-4 0  6953
2 25338  98.5671 305.5894 0010227 334.8920  25.1755 14.24732119545906
GOES 11                 
1 26352U 00022A   08317.45459532  .00000106  00000-0  10000-3 0   552
2 26352   0.1101 258.3078 0005676 332.6742 209.5583  1.00263218 31231
COSPAS 9 (NADEZHDA 6)   
1 26384U 00033A   08317.63320328  .00000041  00000-0  17443-4 0  4639
2 26384  98.4156 337.8267 0015786 168.5605 191.5970 14.64079611447266
SARSAT 8 (NOAA 16)      
1 26536U 00055A   08317.39574224  .00000325  00000-0  20080-3 0  1688
2 26536  99.1691 309.9169 0010686 165.8477 194.3040 14.12503426419693
GOES 12                 
1 26871U 01031A   08309.29342036 -.00000237  00000-0  10000-3 0  8017
2 26871   0.3429  86.1887 0001524  75.6826 272.3294  1.00260879 26750
SARSAT 9 (NOAA 17)      
1 27453U 02032A   08317.45149188 -.00000088  00000-0 -20031-4 0  1706
2 27453  98.5182  17.6522 0012261  40.4162 319.7934 14.24015998331903
INSAT 3A                
1 27714U 03013A   08315.71048153 -.00000241  00000-0  10000-3 0  3440
2 27714   0.0535 266.4576 0002788 242.4640 250.6520  1.00273497 20510
SARSAT 10 (NOAA 18)     
1 28654U 05018A   08317.44997926  .00000223  00000-0  14802-3 0  6585
2 28654  98.8831 256.6464 0013536 254.9684 104.9961 14.11209575179386
MSG-2                   
1 28912U 05049B   08303.88548429  .00000001  00000-0  10000-3 0  4273
2 28912   0.2959 191.9475 0001925 111.4239  53.6452  1.00269703 10535
SARSAT 11 (METOP-A)     
1 29499U 06044A   08317.38478772 -.00000154  00000-0 -50200-4 0  6475
2 29499  98.7207  14.6069 0000905  92.5647 267.5604 14.21479900107219
